ORBCOMM FM20            
1 25416U 98046D   25246.52440332  .00001921  00000+0  68480-3 0  9998
2 25416  44.9936 170.2503 0002564 330.8013  29.2691 14.37346342415532
ORBCOMM FM16            
1 25417U 98046E   25246.91241532  .00002063  00000+0  70651-3 0  9994
2 25417  44.9923 158.9372 0006078 338.3916  21.6675 14.39096663415599
ORBCOMM FM15            
1 25418U 98046F   25246.49152886  .00002596  00000+0  88328-3 0  9992
2 25418  44.9957 166.3165 0005824 335.5969  24.4603 14.38737262415526
ORBCOMM FM14            
1 25419U 98046G   25246.48939967  .00002656  00000+0  89613-3 0  9990
2 25419  44.9946 164.3361 0004618 332.9217  27.1390 14.39111875415494
ORBCOMM FM13            
1 25420U 98046H   25246.53325593  .00002456  00000+0  85350-3 0  9994
2 25420  44.9959 172.8745 0006738 317.0038  43.0283 14.37831053414515
ORBCOMM FM21            
1 25475U 98053A   25246.76621184  .00001552  00000+0  56070-3 0  9995
2 25475  45.0075 257.3365 0003862 269.7255  90.3150 14.37482434408552
ORBCOMM FM22            
1 25476U 98053B   25246.74549371  .00002068  00000+0  71574-3 0  9990
2 25476  45.0066 251.6446 0005659 268.7714  91.2487 14.38560587408588
ORBCOMM FM23            
1 25477U 98053C   25246.75660658  .00001783  00000+0  63458-3 0  9999
2 25477  45.0073 259.3914 0004833 265.0664  94.9632 14.37682642408701
